{
  "type": "FeatureCollection",
  "features": [
    {
      "type": "Feature",
      "properties": {
        "name": "Pour Across America — Supported Regions",
        "description": "United States of America (Continental, Alaska, Hawaii)"
      },
      "geometry": {
        "type": "MultiPolygon",
        "coordinates": [
          [
            [
              [-124.733253, 48.163743],
              [-123.032555, 48.992527],
              [-95.153321, 49.384358],
              [-87.516966, 48.014870],
              [-82.550926, 45.347517],
              [-83.143799, 41.975681],
              [-79.762268, 43.452919],
              [-75.864258, 45.007076],
              [-71.503906, 45.011419],
              [-67.138672, 47.129313],
              [-66.885986, 44.809122],
              [-70.136719, 43.260718],
              [-70.312500, 41.771312],
              [-74.047852, 40.979898],
              [-75.849609, 35.173808],
              [-80.947266, 31.952162],
              [-80.002441, 25.323851],
              [-81.145020, 24.886437],
              [-82.969971, 24.467150],
              [-84.726563, 29.763036],
              [-87.363281, 30.300018],
              [-89.252930, 29.267233],
              [-91.054688, 29.152162],
              [-93.911133, 29.344987],
              [-96.965332, 25.958045],
              [-99.887695, 26.352497],
              [-101.162109, 28.535228],
              [-104.677734, 29.535230],
              [-106.281738, 31.802893],
              [-111.269531, 31.353637],
              [-117.004395, 32.250938],
              [-117.256470, 33.137551],
              [-120.366211, 34.669359],
              [-122.475586, 37.857507],
              [-124.072266, 40.245992],
              [-124.557617, 42.032974],
              [-124.206543, 46.437857],
              [-124.733253, 48.163743]
            ]
          ],
          [
            [
              [-141.001709, 59.997921],
              [-141.001709, 69.650124],
              [-156.469727, 71.525653],
              [-168.046875, 66.230860],
              [-168.266602, 63.233627],
              [-164.970703, 60.930432],
              [-161.806641, 58.813743],
              [-158.994141, 58.401712],
              [-156.533203, 57.136239],
              [-153.193359, 57.326521],
              [-149.941406, 59.534318],
              [-145.722656, 60.326948],
              [-141.001709, 59.997921]
            ]
          ],
          [
            [
              [-160.610352, 22.187405],
              [-159.565430, 21.902277],
              [-157.651367, 21.043491],
              [-155.810547, 18.979026],
              [-154.731445, 19.290398],
              [-154.797363, 20.427038],
              [-156.486816, 20.927047],
              [-157.080078, 21.207458],
              [-158.051758, 21.657428],
              [-159.697266, 22.085501],
              [-160.610352, 22.187405]
            ]
          ]
        ]
      }
    }
  ]
}
